{
  "type": "FeatureCollection",
  "features": [
    {
      "type": "Feature",
      "properties": {
        "id": "sc04a-driving-road",
        "name": "萍乡火车站—龙山村反穿登山入口",
        "mode": "driving",
        "coordinateSystem": "WGS84",
        "distanceMeters": 51327.1,
        "durationSeconds": 3124.3,
        "durationIsTrafficAware": false,
        "queriedAt": "2026-10-07T03:40:34.600Z",
        "provider": "FOSSGIS OSRM / OpenStreetMap",
        "attribution": "© OpenStreetMap contributors, ODbL 1.0; routing by FOSSGIS OSRM",
        "isUserRecordedRoute": false
      },
      "geometry": {
        "coordinates": [
          [
            113.836145,
            27.649685
          ],
          [
            113.836173,
            27.649692
          ],
          [
            113.836554,
            27.649782
          ],
          [
            113.836682,
            27.649372
          ],
          [
            113.836585,
            27.649348
          ],
          [
            113.837922,
            27.647165
          ],
          [
            113.83798,
            27.647063
          ],
          [
            113.838396,
            27.647173
          ],
          [
            113.841566,
            27.647924
          ],
          [
            113.841982,
            27.647987
          ],
          [
            113.844018,
            27.648278
          ],
          [
            113.844076,
            27.648286
          ],
          [
            113.844115,
            27.648292
          ],
          [
            113.847768,
            27.648809
          ],
          [
            113.848103,
            27.648868
          ],
          [
            113.848743,
            27.64898
          ],
          [
            113.848912,
            27.64901
          ],
          [
            113.849581,
            27.649115
          ],
          [
            113.85052,
            27.649258
          ],
          [
            113.851015,
            27.649338
          ],
          [
            113.851346,
            27.649385
          ],
          [
            113.851528,
            27.649398
          ],
          [
            113.851746,
            27.649403
          ],
          [
            113.851925,
            27.649398
          ],
          [
            113.852276,
            27.649371
          ],
          [
            113.852719,
            27.649298
          ],
          [
            113.85324,
            27.649146
          ],
          [
            113.855195,
            27.648535
          ],
          [
            113.855804,
            27.648363
          ],
          [
            113.856209,
            27.64825
          ],
          [
            113.856605,
            27.648139
          ],
          [
            113.858833,
            27.647493
          ],
          [
            113.859143,
            27.64738
          ],
          [
            113.861273,
            27.64633
          ],
          [
            113.861594,
            27.646172
          ],
          [
            113.862078,
            27.645933
          ],
          [
            113.862121,
            27.645912
          ],
          [
            113.862845,
            27.645556
          ],
          [
            113.864178,
            27.644912
          ],
          [
            113.864286,
            27.644875
          ],
          [
            113.864387,
            27.644971
          ],
          [
            113.866161,
            27.646968
          ],
          [
            113.866491,
            27.647306
          ],
          [
            113.866647,
            27.647446
          ],
          [
            113.866937,
            27.647662
          ],
          [
            113.868243,
            27.648411
          ],
          [
            113.86892,
            27.648813
          ],
          [
            113.868949,
            27.648831
          ],
          [
            113.869507,
            27.649307
          ],
          [
            113.8699,
            27.649665
          ],
          [
            113.870351,
            27.650035
          ],
          [
            113.870883,
            27.650327
          ],
          [
            113.872468,
            27.65038
          ],
          [
            113.874417,
            27.650446
          ],
          [
            113.874986,
            27.650468
          ],
          [
            113.875515,
            27.650483
          ],
          [
            113.875844,
            27.650493
          ],
          [
            113.876507,
            27.650509
          ],
          [
            113.877942,
            27.650551
          ],
          [
            113.878385,
            27.650569
          ],
          [
            113.878946,
            27.650647
          ],
          [
            113.879497,
            27.650775
          ],
          [
            113.879871,
            27.650905
          ],
          [
            113.881125,
            27.651524
          ],
          [
            113.881283,
            27.651603
          ],
          [
            113.88222,
            27.65204
          ],
          [
            113.883653,
            27.652716
          ],
          [
            113.885231,
            27.65348
          ],
          [
            113.887282,
            27.654485
          ],
          [
            113.887291,
            27.654489
          ],
          [
            113.890947,
            27.656272
          ],
          [
            113.894292,
            27.657876
          ],
          [
            113.895137,
            27.658202
          ],
          [
            113.895756,
            27.658447
          ],
          [
            113.896838,
            27.658712
          ],
          [
            113.896849,
            27.658715
          ],
          [
            113.896964,
            27.658743
          ],
          [
            113.897415,
            27.658835
          ],
          [
            113.898331,
            27.658921
          ],
          [
            113.899501,
            27.658918
          ],
          [
            113.90034,
            27.658838
          ],
          [
            113.900557,
            27.658807
          ],
          [
            113.901846,
            27.658423
          ],
          [
            113.903481,
            27.657719
          ],
          [
            113.904141,
            27.657449
          ],
          [
            113.907027,
            27.656232
          ],
          [
            113.907512,
            27.656028
          ],
          [
            113.90789,
            27.655867
          ],
          [
            113.909017,
            27.655388
          ],
          [
            113.909392,
            27.655228
          ],
          [
            113.911169,
            27.654467
          ],
          [
            113.91197,
            27.654122
          ],
          [
            113.913559,
            27.653437
          ],
          [
            113.915476,
            27.65263
          ],
          [
            113.915904,
            27.652448
          ],
          [
            113.916148,
            27.652345
          ],
          [
            113.917408,
            27.65181
          ],
          [
            113.91854,
            27.651392
          ],
          [
            113.919227,
            27.651213
          ],
          [
            113.920127,
            27.651062
          ],
          [
            113.924138,
            27.650616
          ],
          [
            113.924488,
            27.650577
          ],
          [
            113.926968,
            27.650512
          ],
          [
            113.928367,
            27.650687
          ],
          [
            113.931419,
            27.65122
          ],
          [
            113.932512,
            27.651385
          ],
          [
            113.934501,
            27.651528
          ],
          [
            113.935866,
            27.651268
          ],
          [
            113.936427,
            27.651067
          ],
          [
            113.938152,
            27.650299
          ],
          [
            113.939749,
            27.649608
          ],
          [
            113.940869,
            27.64925
          ],
          [
            113.941879,
            27.649059
          ],
          [
            113.94288,
            27.648901
          ],
          [
            113.945661,
            27.648397
          ],
          [
            113.948837,
            27.647694
          ],
          [
            113.950701,
            27.647289
          ],
          [
            113.953269,
            27.646679
          ],
          [
            113.954662,
            27.646341
          ],
          [
            113.956525,
            27.645907
          ],
          [
            113.957623,
            27.645679
          ],
          [
            113.958371,
            27.645495
          ],
          [
            113.958917,
            27.645338
          ],
          [
            113.960033,
            27.644892
          ],
          [
            113.96109,
            27.644318
          ],
          [
            113.961484,
            27.644104
          ],
          [
            113.9617,
            27.643987
          ],
          [
            113.96303,
            27.64324
          ],
          [
            113.963631,
            27.642916
          ],
          [
            113.964201,
            27.642555
          ],
          [
            113.964761,
            27.642162
          ],
          [
            113.965441,
            27.641542
          ],
          [
            113.96598,
            27.640829
          ],
          [
            113.966378,
            27.640093
          ],
          [
            113.966702,
            27.639354
          ],
          [
            113.967565,
            27.637616
          ],
          [
            113.968218,
            27.636757
          ],
          [
            113.969066,
            27.635985
          ],
          [
            113.97248,
            27.633136
          ],
          [
            113.972776,
            27.632876
          ],
          [
            113.975054,
            27.630995
          ],
          [
            113.975515,
            27.630632
          ],
          [
            113.978152,
            27.628411
          ],
          [
            113.978975,
            27.627635
          ],
          [
            113.981058,
            27.625992
          ],
          [
            113.982447,
            27.625088
          ],
          [
            113.984226,
            27.624424
          ],
          [
            113.986039,
            27.624115
          ],
          [
            113.987874,
            27.624167
          ],
          [
            113.989949,
            27.624475
          ],
          [
            113.990324,
            27.62453
          ],
          [
            113.992433,
            27.62484
          ],
          [
            113.994354,
            27.625122
          ],
          [
            113.995778,
            27.625303
          ],
          [
            113.997984,
            27.625641
          ],
          [
            114.000384,
            27.625992
          ],
          [
            114.000825,
            27.626062
          ],
          [
            114.008155,
            27.627226
          ],
          [
            114.010355,
            27.627542
          ],
          [
            114.01185,
            27.627788
          ],
          [
            114.012376,
            27.628014
          ],
          [
            114.012634,
            27.628115
          ],
          [
            114.012719,
            27.627954
          ],
          [
            114.012934,
            27.627548
          ],
          [
            114.01401,
            27.625525
          ],
          [
            114.014971,
            27.623724
          ],
          [
            114.015355,
            27.623094
          ],
          [
            114.015622,
            27.622671
          ],
          [
            114.015675,
            27.622585
          ],
          [
            114.016043,
            27.622117
          ],
          [
            114.017037,
            27.62085
          ],
          [
            114.017882,
            27.619812
          ],
          [
            114.01827,
            27.619364
          ],
          [
            114.024123,
            27.613856
          ],
          [
            114.025303,
            27.612829
          ],
          [
            114.025647,
            27.612641
          ],
          [
            114.025764,
            27.612578
          ],
          [
            114.02647,
            27.612193
          ],
          [
            114.027387,
            27.611984
          ],
          [
            114.028749,
            27.611995
          ],
          [
            114.02978,
            27.612319
          ],
          [
            114.030782,
            27.612919
          ],
          [
            114.032373,
            27.614902
          ],
          [
            114.033465,
            27.616236
          ],
          [
            114.033765,
            27.616561
          ],
          [
            114.034101,
            27.616925
          ],
          [
            114.034356,
            27.617202
          ],
          [
            114.034416,
            27.617267
          ],
          [
            114.034564,
            27.617428
          ],
          [
            114.036061,
            27.618743
          ],
          [
            114.041504,
            27.622467
          ],
          [
            114.044131,
            27.624305
          ],
          [
            114.04874,
            27.627615
          ],
          [
            114.050719,
            27.629023
          ],
          [
            114.051191,
            27.629766
          ],
          [
            114.051953,
            27.632217
          ],
          [
            114.052297,
            27.633141
          ],
          [
            114.053051,
            27.634857
          ],
          [
            114.053462,
            27.635638
          ],
          [
            114.053716,
            27.636123
          ],
          [
            114.054131,
            27.635941
          ],
          [
            114.055186,
            27.635479
          ],
          [
            114.055818,
            27.635204
          ],
          [
            114.056437,
            27.634982
          ],
          [
            114.057082,
            27.634846
          ],
          [
            114.057541,
            27.634789
          ],
          [
            114.057969,
            27.634773
          ],
          [
            114.058413,
            27.634788
          ],
          [
            114.060308,
            27.634975
          ],
          [
            114.06124,
            27.635081
          ],
          [
            114.06167,
            27.635188
          ],
          [
            114.061895,
            27.635286
          ],
          [
            114.062094,
            27.635381
          ],
          [
            114.062443,
            27.635606
          ],
          [
            114.062852,
            27.635973
          ],
          [
            114.063622,
            27.636669
          ],
          [
            114.063899,
            27.636879
          ],
          [
            114.064195,
            27.637017
          ],
          [
            114.064447,
            27.637086
          ],
          [
            114.06476,
            27.63715
          ],
          [
            114.065064,
            27.637145
          ],
          [
            114.065518,
            27.637095
          ],
          [
            114.065823,
            27.636984
          ],
          [
            114.065986,
            27.636876
          ],
          [
            114.066094,
            27.63673
          ],
          [
            114.066182,
            27.63646
          ],
          [
            114.066057,
            27.635463
          ],
          [
            114.066078,
            27.635285
          ],
          [
            114.06615,
            27.635111
          ],
          [
            114.066292,
            27.634971
          ],
          [
            114.066432,
            27.634876
          ],
          [
            114.066678,
            27.634814
          ],
          [
            114.066909,
            27.634812
          ],
          [
            114.067113,
            27.634864
          ],
          [
            114.067287,
            27.634976
          ],
          [
            114.067499,
            27.635171
          ],
          [
            114.067759,
            27.635408
          ],
          [
            114.067944,
            27.635513
          ],
          [
            114.068148,
            27.635587
          ],
          [
            114.068422,
            27.635615
          ],
          [
            114.068722,
            27.635606
          ],
          [
            114.072539,
            27.635104
          ],
          [
            114.073199,
            27.635031
          ],
          [
            114.073676,
            27.635026
          ],
          [
            114.074143,
            27.63504
          ],
          [
            114.074712,
            27.635095
          ],
          [
            114.075615,
            27.635242
          ],
          [
            114.076484,
            27.635508
          ],
          [
            114.081588,
            27.637131
          ],
          [
            114.08394,
            27.637916
          ],
          [
            114.084983,
            27.638468
          ],
          [
            114.086563,
            27.63961
          ],
          [
            114.086906,
            27.639822
          ],
          [
            114.087289,
            27.640032
          ],
          [
            114.092009,
            27.642379
          ],
          [
            114.092444,
            27.642595
          ],
          [
            114.093151,
            27.642947
          ],
          [
            114.093904,
            27.643321
          ],
          [
            114.094104,
            27.643403
          ],
          [
            114.094298,
            27.643458
          ],
          [
            114.094484,
            27.643487
          ],
          [
            114.094641,
            27.643498
          ],
          [
            114.094812,
            27.643488
          ],
          [
            114.094972,
            27.64347
          ],
          [
            114.095114,
            27.643445
          ],
          [
            114.095281,
            27.643405
          ],
          [
            114.095411,
            27.643365
          ],
          [
            114.095521,
            27.643318
          ],
          [
            114.095632,
            27.643257
          ],
          [
            114.09574,
            27.64318
          ],
          [
            114.095846,
            27.643084
          ],
          [
            114.095931,
            27.642985
          ],
          [
            114.096015,
            27.642865
          ],
          [
            114.096353,
            27.642316
          ],
          [
            114.096475,
            27.642156
          ],
          [
            114.096552,
            27.642074
          ],
          [
            114.096634,
            27.641997
          ],
          [
            114.096817,
            27.641843
          ],
          [
            114.096901,
            27.641763
          ],
          [
            114.096972,
            27.641683
          ],
          [
            114.097014,
            27.641615
          ],
          [
            114.097046,
            27.641544
          ],
          [
            114.097071,
            27.64147
          ],
          [
            114.097083,
            27.641413
          ],
          [
            114.097088,
            27.641344
          ],
          [
            114.097082,
            27.641254
          ],
          [
            114.097068,
            27.641167
          ],
          [
            114.097025,
            27.640961
          ],
          [
            114.09701,
            27.640863
          ],
          [
            114.096997,
            27.640742
          ],
          [
            114.096995,
            27.640631
          ],
          [
            114.097001,
            27.640528
          ],
          [
            114.097014,
            27.640432
          ],
          [
            114.097036,
            27.640347
          ],
          [
            114.097068,
            27.640254
          ],
          [
            114.097116,
            27.640147
          ],
          [
            114.097183,
            27.640027
          ],
          [
            114.097264,
            27.639904
          ],
          [
            114.09847,
            27.63834
          ],
          [
            114.100157,
            27.637144
          ],
          [
            114.100384,
            27.636901
          ],
          [
            114.100382,
            27.636498
          ],
          [
            114.100125,
            27.635978
          ],
          [
            114.09998,
            27.63568
          ],
          [
            114.100092,
            27.634027
          ],
          [
            114.100269,
            27.633832
          ],
          [
            114.100711,
            27.633469
          ],
          [
            114.100822,
            27.633233
          ],
          [
            114.100817,
            27.632891
          ],
          [
            114.100883,
            27.632661
          ],
          [
            114.102126,
            27.631622
          ],
          [
            114.102437,
            27.631532
          ],
          [
            114.102748,
            27.631522
          ],
          [
            114.103032,
            27.631432
          ],
          [
            114.103219,
            27.631187
          ],
          [
            114.103193,
            27.630909
          ],
          [
            114.102925,
            27.630443
          ],
          [
            114.102856,
            27.629968
          ],
          [
            114.103086,
            27.629493
          ],
          [
            114.105408,
            27.627521
          ],
          [
            114.105548,
            27.627164
          ],
          [
            114.105655,
            27.62617
          ],
          [
            114.105709,
            27.625724
          ],
          [
            114.105897,
            27.625464
          ],
          [
            114.106255,
            27.625379
          ],
          [
            114.106567,
            27.625225
          ],
          [
            114.106691,
            27.625011
          ],
          [
            114.106824,
            27.624482
          ],
          [
            114.106916,
            27.624255
          ],
          [
            114.107404,
            27.624074
          ],
          [
            114.108576,
            27.624142
          ],
          [
            114.109053,
            27.623982
          ],
          [
            114.10924,
            27.623405
          ],
          [
            114.109394,
            27.623048
          ],
          [
            114.10983,
            27.62256
          ],
          [
            114.11123,
            27.62238
          ],
          [
            114.111814,
            27.62218
          ],
          [
            114.113499,
            27.620792
          ],
          [
            114.115483,
            27.617764
          ],
          [
            114.116627,
            27.616377
          ],
          [
            114.117166,
            27.615834
          ],
          [
            114.117853,
            27.615359
          ],
          [
            114.118895,
            27.61488
          ],
          [
            114.120955,
            27.613889
          ],
          [
            114.132657,
            27.608521
          ],
          [
            114.133362,
            27.608249
          ],
          [
            114.134246,
            27.607833
          ],
          [
            114.137177,
            27.606396
          ],
          [
            114.137339,
            27.606309
          ],
          [
            114.137549,
            27.606133
          ],
          [
            114.13763,
            27.605962
          ],
          [
            114.137658,
            27.605779
          ],
          [
            114.137617,
            27.605565
          ],
          [
            114.137554,
            27.605402
          ],
          [
            114.137337,
            27.605193
          ],
          [
            114.136835,
            27.604777
          ],
          [
            114.136512,
            27.604488
          ],
          [
            114.136391,
            27.604326
          ],
          [
            114.136329,
            27.604193
          ],
          [
            114.136283,
            27.60398
          ],
          [
            114.136292,
            27.603713
          ],
          [
            114.136371,
            27.603511
          ],
          [
            114.136505,
            27.60333
          ],
          [
            114.136865,
            27.602785
          ],
          [
            114.136957,
            27.602571
          ],
          [
            114.137011,
            27.602309
          ],
          [
            114.137036,
            27.602012
          ],
          [
            114.137069,
            27.600598
          ],
          [
            114.137114,
            27.599917
          ],
          [
            114.137211,
            27.599499
          ],
          [
            114.137384,
            27.599107
          ],
          [
            114.13757,
            27.598767
          ],
          [
            114.137912,
            27.598356
          ],
          [
            114.138159,
            27.598145
          ],
          [
            114.138302,
            27.598067
          ],
          [
            114.13846,
            27.598035
          ],
          [
            114.138609,
            27.598054
          ],
          [
            114.138765,
            27.598132
          ],
          [
            114.138988,
            27.598344
          ],
          [
            114.139418,
            27.598854
          ],
          [
            114.139575,
            27.598993
          ],
          [
            114.139774,
            27.59912
          ],
          [
            114.142343,
            27.600165
          ],
          [
            114.14347,
            27.600136
          ],
          [
            114.144081,
            27.599822
          ],
          [
            114.144403,
            27.59929
          ],
          [
            114.144661,
            27.598843
          ],
          [
            114.144682,
            27.59832
          ],
          [
            114.144403,
            27.597626
          ],
          [
            114.144124,
            27.597272
          ],
          [
            114.143993,
            27.597145
          ],
          [
            114.14391,
            27.59705
          ],
          [
            114.143835,
            27.596917
          ],
          [
            114.143754,
            27.596711
          ],
          [
            114.143722,
            27.596567
          ],
          [
            114.143736,
            27.596386
          ],
          [
            114.143803,
            27.596166
          ],
          [
            114.143966,
            27.595839
          ],
          [
            114.144047,
            27.595708
          ],
          [
            114.144092,
            27.595574
          ],
          [
            114.14413,
            27.595387
          ],
          [
            114.144124,
            27.595245
          ],
          [
            114.144084,
            27.595081
          ],
          [
            114.144004,
            27.594933
          ],
          [
            114.14384,
            27.594742
          ],
          [
            114.143727,
            27.594619
          ],
          [
            114.143617,
            27.59449
          ],
          [
            114.143548,
            27.594328
          ],
          [
            114.143537,
            27.594178
          ],
          [
            114.143561,
            27.594034
          ],
          [
            114.14362,
            27.593879
          ],
          [
            114.143695,
            27.593767
          ],
          [
            114.143824,
            27.593663
          ],
          [
            114.143966,
            27.593591
          ],
          [
            114.144409,
            27.593445
          ],
          [
            114.144556,
            27.593372
          ],
          [
            114.144674,
            27.593277
          ],
          [
            114.144774,
            27.593158
          ],
          [
            114.144827,
            27.59303
          ],
          [
            114.144843,
            27.592875
          ],
          [
            114.144841,
            27.59272
          ],
          [
            114.144728,
            27.591808
          ],
          [
            114.144682,
            27.591392
          ],
          [
            114.144669,
            27.590981
          ],
          [
            114.144698,
            27.590497
          ],
          [
            114.144811,
            27.589247
          ],
          [
            114.144811,
            27.589032
          ],
          [
            114.144795,
            27.588884
          ],
          [
            114.144755,
            27.588727
          ],
          [
            114.14469,
            27.588555
          ],
          [
            114.14458,
            27.588369
          ],
          [
            114.144446,
            27.588221
          ],
          [
            114.144253,
            27.588055
          ],
          [
            114.143977,
            27.587884
          ],
          [
            114.142979,
            27.58734
          ],
          [
            114.142738,
            27.587208
          ],
          [
            114.142571,
            27.587089
          ],
          [
            114.142386,
            27.586907
          ],
          [
            114.142225,
            27.586704
          ],
          [
            114.14214,
            27.586533
          ],
          [
            114.142081,
            27.586336
          ],
          [
            114.142048,
            27.586073
          ],
          [
            114.141989,
            27.585497
          ],
          [
            114.141941,
            27.584981
          ],
          [
            114.141895,
            27.584818
          ],
          [
            114.141815,
            27.584669
          ],
          [
            114.141692,
            27.58452
          ],
          [
            114.141515,
            27.584378
          ],
          [
            114.139897,
            27.583486
          ],
          [
            114.137424,
            27.582139
          ],
          [
            114.137194,
            27.582007
          ],
          [
            114.136995,
            27.581857
          ],
          [
            114.136847,
            27.581699
          ],
          [
            114.136716,
            27.581498
          ],
          [
            114.136665,
            27.581333
          ],
          [
            114.13662,
            27.58111
          ],
          [
            114.136643,
            27.580824
          ],
          [
            114.136791,
            27.580109
          ],
          [
            114.136915,
            27.5795
          ],
          [
            114.137006,
            27.579028
          ],
          [
            114.137086,
            27.578578
          ],
          [
            114.1371,
            27.578343
          ],
          [
            114.137086,
            27.578131
          ],
          [
            114.137038,
            27.577912
          ],
          [
            114.136204,
            27.575812
          ],
          [
            114.135747,
            27.574775
          ],
          [
            114.135549,
            27.57437
          ],
          [
            114.135233,
            27.573714
          ],
          [
            114.134895,
            27.573057
          ],
          [
            114.134401,
            27.572205
          ],
          [
            114.134342,
            27.572104
          ],
          [
            114.133701,
            27.571036
          ],
          [
            114.132903,
            27.569714
          ],
          [
            114.132663,
            27.56932
          ],
          [
            114.132553,
            27.569056
          ],
          [
            114.132465,
            27.56879
          ],
          [
            114.132398,
            27.568504
          ],
          [
            114.132358,
            27.568196
          ],
          [
            114.132355,
            27.567772
          ],
          [
            114.132575,
            27.562543
          ],
          [
            114.132768,
            27.558332
          ],
          [
            114.132771,
            27.558016
          ],
          [
            114.132768,
            27.557717
          ],
          [
            114.132746,
            27.557319
          ],
          [
            114.132534,
            27.555417
          ],
          [
            114.132454,
            27.554592
          ],
          [
            114.132427,
            27.554245
          ],
          [
            114.132422,
            27.55401
          ],
          [
            114.132441,
            27.553774
          ],
          [
            114.132494,
            27.553514
          ],
          [
            114.133395,
            27.549643
          ],
          [
            114.133444,
            27.549477
          ],
          [
            114.133511,
            27.549301
          ],
          [
            114.13365,
            27.549066
          ],
          [
            114.133817,
            27.548862
          ],
          [
            114.135322,
            27.54745
          ],
          [
            114.135497,
            27.547255
          ],
          [
            114.135641,
            27.547063
          ],
          [
            114.135751,
            27.546873
          ],
          [
            114.135839,
            27.546664
          ],
          [
            114.135895,
            27.546459
          ],
          [
            114.135945,
            27.546173
          ],
          [
            114.136172,
            27.544758
          ],
          [
            114.136421,
            27.543108
          ],
          [
            114.136593,
            27.543127
          ],
          [
            114.136705,
            27.543151
          ],
          [
            114.136794,
            27.543161
          ],
          [
            114.136877,
            27.543154
          ],
          [
            114.136968,
            27.543111
          ],
          [
            114.137049,
            27.543042
          ],
          [
            114.137105,
            27.54298
          ],
          [
            114.137127,
            27.542916
          ],
          [
            114.137135,
            27.542859
          ],
          [
            114.137105,
            27.542804
          ],
          [
            114.136998,
            27.542687
          ],
          [
            114.136923,
            27.542602
          ],
          [
            114.136899,
            27.542552
          ],
          [
            114.136904,
            27.542507
          ],
          [
            114.136933,
            27.542461
          ],
          [
            114.136979,
            27.54244
          ],
          [
            114.137078,
            27.542454
          ],
          [
            114.137228,
            27.542507
          ],
          [
            114.137312,
            27.542528
          ],
          [
            114.137435,
            27.542535
          ],
          [
            114.137612,
            27.542526
          ],
          [
            114.137711,
            27.542535
          ],
          [
            114.137813,
            27.542554
          ],
          [
            114.137993,
            27.542609
          ],
          [
            114.138207,
            27.542683
          ],
          [
            114.138331,
            27.54274
          ],
          [
            114.138411,
            27.54278
          ],
          [
            114.138532,
            27.542818
          ],
          [
            114.138631,
            27.542851
          ],
          [
            114.138725,
            27.542901
          ],
          [
            114.138819,
            27.542949
          ],
          [
            114.138905,
            27.542978
          ],
          [
            114.138993,
            27.542989
          ],
          [
            114.139138,
            27.543004
          ],
          [
            114.139237,
            27.543027
          ],
          [
            114.139299,
            27.543049
          ],
          [
            114.139385,
            27.543104
          ],
          [
            114.139439,
            27.543161
          ],
          [
            114.139455,
            27.543225
          ],
          [
            114.139425,
            27.543722
          ],
          [
            114.139428,
            27.54395
          ],
          [
            114.139455,
            27.544152
          ],
          [
            114.139516,
            27.544385
          ],
          [
            114.139589,
            27.544585
          ],
          [
            114.139677,
            27.544737
          ],
          [
            114.139822,
            27.544928
          ],
          [
            114.140058,
            27.545265
          ],
          [
            114.14056,
            27.546053
          ],
          [
            114.140587,
            27.546121
          ],
          [
            114.140597,
            27.546186
          ],
          [
            114.140592,
            27.546302
          ],
          [
            114.140589,
            27.546454
          ],
          [
            114.140608,
            27.546709
          ],
          [
            114.140627,
            27.546806
          ],
          [
            114.140664,
            27.546911
          ],
          [
            114.140804,
            27.54683
          ],
          [
            114.141053,
            27.546683
          ],
          [
            114.141386,
            27.546481
          ],
          [
            114.14156,
            27.546381
          ],
          [
            114.141678,
            27.54629
          ],
          [
            114.141917,
            27.546093
          ],
          [
            114.142083,
            27.545948
          ],
          [
            114.142295,
            27.545734
          ],
          [
            114.142464,
            27.545529
          ],
          [
            114.142751,
            27.545132
          ],
          [
            114.143062,
            27.544695
          ],
          [
            114.143355,
            27.544338
          ],
          [
            114.143505,
            27.544145
          ],
          [
            114.14366,
            27.543938
          ],
          [
            114.143803,
            27.543748
          ],
          [
            114.144036,
            27.543446
          ],
          [
            114.144186,
            27.543282
          ],
          [
            114.144269,
            27.543168
          ],
          [
            114.144543,
            27.542766
          ],
          [
            114.144717,
            27.542495
          ],
          [
            114.144803,
            27.542354
          ],
          [
            114.144859,
            27.54225
          ],
          [
            114.1449,
            27.54214
          ],
          [
            114.144969,
            27.541948
          ],
          [
            114.145012,
            27.541869
          ],
          [
            114.145061,
            27.541815
          ],
          [
            114.145492,
            27.541446
          ],
          [
            114.145932,
            27.541051
          ],
          [
            114.146128,
            27.540863
          ],
          [
            114.146249,
            27.54073
          ],
          [
            114.146361,
            27.54058
          ],
          [
            114.146622,
            27.540209
          ],
          [
            114.146941,
            27.539767
          ],
          [
            114.147037,
            27.53965
          ],
          [
            114.147155,
            27.539524
          ],
          [
            114.147295,
            27.539401
          ],
          [
            114.147394,
            27.539334
          ],
          [
            114.147469,
            27.539289
          ],
          [
            114.147523,
            27.539244
          ],
          [
            114.147593,
            27.539165
          ],
          [
            114.147858,
            27.538832
          ],
          [
            114.14811,
            27.538483
          ],
          [
            114.148502,
            27.537926
          ],
          [
            114.148716,
            27.53765
          ],
          [
            114.148842,
            27.537507
          ],
          [
            114.148931,
            27.537441
          ],
          [
            114.149033,
            27.537396
          ],
          [
            114.149164,
            27.537379
          ],
          [
            114.149465,
            27.537377
          ],
          [
            114.149658,
            27.537365
          ],
          [
            114.149867,
            27.537336
          ],
          [
            114.150025,
            27.537289
          ],
          [
            114.150146,
            27.537224
          ],
          [
            114.150294,
            27.537128
          ],
          [
            114.150362,
            27.537089
          ],
          [
            114.150437,
            27.537075
          ],
          [
            114.15054,
            27.537083
          ],
          [
            114.150614,
            27.537115
          ],
          [
            114.150728,
            27.537189
          ],
          [
            114.150904,
            27.537339
          ],
          [
            114.150965,
            27.537374
          ],
          [
            114.151011,
            27.53739
          ],
          [
            114.151047,
            27.537384
          ],
          [
            114.151097,
            27.537356
          ],
          [
            114.151124,
            27.537309
          ],
          [
            114.15114,
            27.537205
          ],
          [
            114.151168,
            27.537139
          ],
          [
            114.151216,
            27.537087
          ],
          [
            114.15129,
            27.537047
          ],
          [
            114.151381,
            27.537044
          ],
          [
            114.15148,
            27.537069
          ],
          [
            114.151561,
            27.537117
          ],
          [
            114.151672,
            27.537203
          ],
          [
            114.151749,
            27.537242
          ],
          [
            114.151829,
            27.537259
          ],
          [
            114.151911,
            27.537254
          ],
          [
            114.151978,
            27.537226
          ],
          [
            114.152076,
            27.537152
          ],
          [
            114.15215,
            27.537094
          ],
          [
            114.152221,
            27.537066
          ],
          [
            114.152292,
            27.537059
          ],
          [
            114.152357,
            27.537079
          ],
          [
            114.152438,
            27.537122
          ],
          [
            114.152587,
            27.537241
          ],
          [
            114.152682,
            27.537296
          ],
          [
            114.152758,
            27.537318
          ],
          [
            114.152839,
            27.537315
          ],
          [
            114.152938,
            27.537286
          ],
          [
            114.153033,
            27.537268
          ],
          [
            114.153118,
            27.537268
          ],
          [
            114.153202,
            27.53728
          ],
          [
            114.153416,
            27.537328
          ],
          [
            114.15353,
            27.537341
          ],
          [
            114.153641,
            27.537335
          ],
          [
            114.15375,
            27.53731
          ],
          [
            114.153921,
            27.537253
          ],
          [
            114.154011,
            27.537235
          ],
          [
            114.154082,
            27.537247
          ],
          [
            114.154155,
            27.537286
          ],
          [
            114.154219,
            27.537353
          ],
          [
            114.15433,
            27.537491
          ],
          [
            114.154429,
            27.537651
          ],
          [
            114.154566,
            27.537905
          ],
          [
            114.154635,
            27.538007
          ],
          [
            114.15468,
            27.538044
          ],
          [
            114.154733,
            27.53806
          ],
          [
            114.154802,
            27.538057
          ],
          [
            114.154859,
            27.538026
          ],
          [
            114.154904,
            27.537981
          ],
          [
            114.15493,
            27.537923
          ],
          [
            114.154927,
            27.537832
          ],
          [
            114.154906,
            27.537625
          ],
          [
            114.154883,
            27.537518
          ],
          [
            114.15486,
            27.537428
          ],
          [
            114.154847,
            27.537346
          ],
          [
            114.154841,
            27.537226
          ],
          [
            114.154839,
            27.537121
          ],
          [
            114.154821,
            27.537038
          ],
          [
            114.154773,
            27.536953
          ],
          [
            114.154749,
            27.536887
          ],
          [
            114.154743,
            27.536819
          ],
          [
            114.154775,
            27.536756
          ],
          [
            114.154861,
            27.536649
          ],
          [
            114.15494,
            27.536566
          ],
          [
            114.155002,
            27.536529
          ],
          [
            114.155081,
            27.536512
          ],
          [
            114.155181,
            27.536503
          ],
          [
            114.155277,
            27.536515
          ],
          [
            114.155398,
            27.536559
          ],
          [
            114.155779,
            27.536708
          ],
          [
            114.155953,
            27.53679
          ],
          [
            114.156037,
            27.536817
          ],
          [
            114.156122,
            27.536812
          ],
          [
            114.156186,
            27.53679
          ],
          [
            114.156233,
            27.536752
          ],
          [
            114.156257,
            27.536702
          ],
          [
            114.156265,
            27.536543
          ],
          [
            114.156286,
            27.536446
          ],
          [
            114.156326,
            27.536371
          ],
          [
            114.156382,
            27.536308
          ],
          [
            114.156471,
            27.536246
          ],
          [
            114.156552,
            27.536222
          ],
          [
            114.156645,
            27.536215
          ],
          [
            114.156778,
            27.536203
          ],
          [
            114.156856,
            27.536188
          ],
          [
            114.156945,
            27.536153
          ],
          [
            114.157232,
            27.536031
          ],
          [
            114.157375,
            27.535978
          ],
          [
            114.157522,
            27.535935
          ],
          [
            114.157707,
            27.535897
          ],
          [
            114.157908,
            27.535836
          ],
          [
            114.15819,
            27.535721
          ],
          [
            114.158364,
            27.53566
          ],
          [
            114.158528,
            27.535569
          ],
          [
            114.158807,
            27.535405
          ],
          [
            114.158976,
            27.535281
          ],
          [
            114.159099,
            27.535191
          ],
          [
            114.159247,
            27.535108
          ],
          [
            114.159424,
            27.534991
          ],
          [
            114.159499,
            27.534928
          ],
          [
            114.159469,
            27.534851
          ],
          [
            114.159412,
            27.534682
          ],
          [
            114.159357,
            27.534537
          ],
          [
            114.159217,
            27.534206
          ],
          [
            114.159107,
            27.533926
          ],
          [
            114.159056,
            27.533788
          ],
          [
            114.159021,
            27.533662
          ],
          [
            114.159024,
            27.533552
          ],
          [
            114.159054,
            27.533312
          ],
          [
            114.159086,
            27.533086
          ],
          [
            114.159147,
            27.532841
          ],
          [
            114.15919,
            27.532689
          ],
          [
            114.159244,
            27.532601
          ],
          [
            114.159306,
            27.532544
          ],
          [
            114.159416,
            27.532472
          ],
          [
            114.159582,
            27.53238
          ],
          [
            114.159813,
            27.532277
          ],
          [
            114.159998,
            27.532227
          ],
          [
            114.16018,
            27.532189
          ],
          [
            114.160349,
            27.532137
          ],
          [
            114.160582,
            27.532082
          ],
          [
            114.160768,
            27.532032
          ],
          [
            114.160985,
            27.531985
          ],
          [
            114.161124,
            27.531963
          ],
          [
            114.16128,
            27.531956
          ],
          [
            114.161543,
            27.53199
          ],
          [
            114.161795,
            27.532028
          ],
          [
            114.161969,
            27.532049
          ],
          [
            114.162103,
            27.532059
          ],
          [
            114.162178,
            27.53204
          ],
          [
            114.16231,
            27.531973
          ],
          [
            114.16249,
            27.531911
          ],
          [
            114.162602,
            27.531866
          ],
          [
            114.162675,
            27.531854
          ],
          [
            114.162782,
            27.531856
          ],
          [
            114.162865,
            27.531892
          ],
          [
            114.163015,
            27.531973
          ],
          [
            114.163219,
            27.532101
          ],
          [
            114.163369,
            27.532178
          ],
          [
            114.163477,
            27.532223
          ],
          [
            114.16356,
            27.532242
          ],
          [
            114.163651,
            27.532235
          ],
          [
            114.163836,
            27.532189
          ],
          [
            114.164016,
            27.532151
          ],
          [
            114.164182,
            27.532132
          ],
          [
            114.164308,
            27.532099
          ],
          [
            114.16441,
            27.532068
          ],
          [
            114.164493,
            27.532068
          ],
          [
            114.164539,
            27.53208
          ],
          [
            114.164608,
            27.532128
          ],
          [
            114.164657,
            27.53218
          ],
          [
            114.16471,
            27.532273
          ],
          [
            114.164751,
            27.532392
          ],
          [
            114.164799,
            27.532513
          ],
          [
            114.164847,
            27.532732
          ],
          [
            114.164906,
            27.532991
          ],
          [
            114.164917,
            27.533107
          ],
          [
            114.164898,
            27.533184
          ],
          [
            114.164861,
            27.533245
          ],
          [
            114.164799,
            27.533291
          ],
          [
            114.164673,
            27.533324
          ],
          [
            114.164579,
            27.53336
          ],
          [
            114.16445,
            27.533445
          ],
          [
            114.164378,
            27.533524
          ],
          [
            114.164351,
            27.533576
          ],
          [
            114.164364,
            27.533619
          ],
          [
            114.164413,
            27.533671
          ],
          [
            114.164485,
            27.533704
          ],
          [
            114.164641,
            27.533735
          ],
          [
            114.164761,
            27.533773
          ],
          [
            114.164906,
            27.533833
          ],
          [
            114.165038,
            27.533876
          ],
          [
            114.165153,
            27.533923
          ],
          [
            114.16522,
            27.533988
          ],
          [
            114.165244,
            27.534076
          ],
          [
            114.165228,
            27.53414
          ],
          [
            114.165191,
            27.534199
          ],
          [
            114.16515,
            27.53423
          ],
          [
            114.165086,
            27.534244
          ],
          [
            114.165003,
            27.534232
          ],
          [
            114.164855,
            27.534204
          ],
          [
            114.1647,
            27.534192
          ],
          [
            114.164536,
            27.534209
          ],
          [
            114.164354,
            27.534242
          ],
          [
            114.164303,
            27.534287
          ],
          [
            114.164262,
            27.534335
          ],
          [
            114.164241,
            27.534399
          ],
          [
            114.164241,
            27.534463
          ],
          [
            114.164262,
            27.534535
          ],
          [
            114.164319,
            27.534644
          ],
          [
            114.164394,
            27.534751
          ],
          [
            114.16448,
            27.534813
          ],
          [
            114.164619,
            27.534875
          ],
          [
            114.164726,
            27.534906
          ],
          [
            114.164818,
            27.534908
          ],
          [
            114.164946,
            27.534879
          ],
          [
            114.165072,
            27.534829
          ],
          [
            114.16518,
            27.534815
          ],
          [
            114.165354,
            27.53482
          ],
          [
            114.165486,
            27.534837
          ],
          [
            114.165593,
            27.534825
          ],
          [
            114.165673,
            27.534825
          ],
          [
            114.165759,
            27.534844
          ],
          [
            114.165848,
            27.534896
          ],
          [
            114.165915,
            27.534975
          ],
          [
            114.165987,
            27.535098
          ],
          [
            114.166051,
            27.535193
          ],
          [
            114.166124,
            27.535277
          ],
          [
            114.166159,
            27.53535
          ],
          [
            114.166167,
            27.535434
          ],
          [
            114.166183,
            27.535491
          ],
          [
            114.166229,
            27.535538
          ],
          [
            114.166296,
            27.535557
          ],
          [
            114.166502,
            27.535586
          ],
          [
            114.166639,
            27.535595
          ],
          [
            114.166741,
            27.535591
          ],
          [
            114.1668,
            27.535602
          ],
          [
            114.166864,
            27.535636
          ],
          [
            114.167033,
            27.535776
          ],
          [
            114.167111,
            27.535826
          ],
          [
            114.167199,
            27.535843
          ],
          [
            114.16732,
            27.535843
          ],
          [
            114.167422,
            27.535871
          ],
          [
            114.167508,
            27.535919
          ],
          [
            114.16761,
            27.53595
          ],
          [
            114.167773,
            27.535962
          ],
          [
            114.167873,
            27.535981
          ],
          [
            114.167959,
            27.536009
          ],
          [
            114.168034,
            27.536057
          ],
          [
            114.168136,
            27.536147
          ],
          [
            114.168254,
            27.536207
          ],
          [
            114.168361,
            27.53628
          ],
          [
            114.168455,
            27.53633
          ],
          [
            114.168543,
            27.536354
          ],
          [
            114.168632,
            27.536392
          ],
          [
            114.168769,
            27.536471
          ],
          [
            114.169029,
            27.536597
          ],
          [
            114.169144,
            27.536651
          ],
          [
            114.169249,
            27.53668
          ],
          [
            114.169337,
            27.536677
          ],
          [
            114.169426,
            27.53667
          ],
          [
            114.16952,
            27.536687
          ],
          [
            114.169651,
            27.536723
          ],
          [
            114.169804,
            27.536773
          ],
          [
            114.169925,
            27.536839
          ],
          [
            114.170061,
            27.536892
          ],
          [
            114.170281,
            27.536956
          ],
          [
            114.170391,
            27.537013
          ],
          [
            114.170515,
            27.537096
          ],
          [
            114.170759,
            27.537282
          ],
          [
            114.170885,
            27.537396
          ],
          [
            114.17115,
            27.537593
          ],
          [
            114.171352,
            27.537757
          ],
          [
            114.17147,
            27.53785
          ],
          [
            114.171555,
            27.537919
          ],
          [
            114.171571,
            27.537956
          ]
        ],
        "type": "LineString"
      }
    }
  ]
}
